{
  "norad_id": 46083,
  "name": "STARLINK-1579",
  "history": [
    {
      "epoch": "2026-03-28T11:48:42.503904Z",
      "apogee_km": 548.3463400820501,
      "perigee_km": 546.0554383083045,
      "latitude_deg": 1.7437336397351875e-05,
      "longitude_deg": 9.114284011939915,
      "height_km": 548.2738933884516,
      "semi_major_axis_km": 6925.337889195177,
      "eccentricity": 0.0001654,
      "inclination_deg": 53.0572,
      "raan_deg": 12.2032,
      "arg_perigee_deg": 99.8366,
      "mean_anomaly_deg": 260.281,
      "mean_motion_rev_day": 15.06403481
    },
    {
      "epoch": "2026-03-29T02:08:32.552160Z",
      "apogee_km": 548.2231892817563,
      "perigee_km": 546.0874291335958,
      "latitude_deg": 2.1749776038076337e-05,
      "longitude_deg": 150.8849171307122,
      "height_km": 548.1446354440857,
      "semi_major_axis_km": 6925.292309207675,
      "eccentricity": 0.0001542,
      "inclination_deg": 53.056,
      "raan_deg": 9.5209,
      "arg_perigee_deg": 96.02,
      "mean_anomaly_deg": 264.0965,
      "mean_motion_rev_day": 15.06418353
    },
    {
      "epoch": "2026-03-30T02:01:39.473760Z",
      "apogee_km": 548.2005291724299,
      "perigee_km": 546.2849691338142,
      "latitude_deg": -9.910912869917937e-06,
      "longitude_deg": 147.15872140342182,
      "height_km": 548.1794017368966,
      "semi_major_axis_km": 6925.379749153122,
      "eccentricity": 0.0001383,
      "inclination_deg": 53.0537,
      "raan_deg": 5.0545,
      "arg_perigee_deg": 93.5531,
      "mean_anomaly_deg": 266.5616,
      "mean_motion_rev_day": 15.06389823
    },
    {
      "epoch": "2026-03-30T11:34:53.260032Z",
      "apogee_km": 548.1765984939238,
      "perigee_km": 546.2386100598633,
      "latitude_deg": -9.653578982572364e-06,
      "longitude_deg": 1.6717174196735982,
      "height_km": 548.1298058213139,
      "semi_major_axis_km": 6925.344604276893,
      "eccentricity": 0.00013992,
      "inclination_deg": 53.0542,
      "raan_deg": 3.2673,
      "arg_perigee_deg": 92.6542,
      "mean_anomaly_deg": 267.4607,
      "mean_motion_rev_day": 15.0640129
    },
    {
      "epoch": "2026-03-31T21:00:50.208768Z",
      "apogee_km": 547.0059193390061,
      "perigee_km": 544.4247071966201,
      "latitude_deg": -7.403083402299722e-05,
      "longitude_deg": -147.44583870489876,
      "height_km": 545.8110774313429,
      "semi_major_axis_km": 6923.852313267813,
      "eccentricity": 0.0001864,
      "inclination_deg": 53.0547,
      "raan_deg": 357.0101,
      "arg_perigee_deg": 52.7211,
      "mean_anomaly_deg": 307.3947,
      "mean_motion_rev_day": 15.06888326
    },
    {
      "epoch": "2026-04-01T20:00:01.999008Z",
      "apogee_km": 538.108764338248,
      "perigee_km": 534.8754837598435,
      "latitude_deg": 13.297468818009866,
      "longitude_deg": 32.32326622089771,
      "height_km": 536.3232568086667,
      "semi_major_axis_km": 6914.6291240490455,
      "eccentricity": 0.0002338,
      "inclination_deg": 53.0651,
      "raan_deg": 352.7,
      "arg_perigee_deg": 83.8591,
      "mean_anomaly_deg": 79.3949,
      "mean_motion_rev_day": 15.09904312
    },
    {
      "epoch": "2026-04-02T20:00:01.999008Z",
      "apogee_km": 532.7727571187606,
      "perigee_km": 529.6372977067213,
      "latitude_deg": -18.089700346567785,
      "longitude_deg": 51.13337319523136,
      "height_km": 536.5569329234362,
      "semi_major_axis_km": 6909.342027412741,
      "eccentricity": 0.0002269,
      "inclination_deg": 53.0724,
      "raan_deg": 348.1861,
      "arg_perigee_deg": 97.2528,
      "mean_anomaly_deg": 105.3554,
      "mean_motion_rev_day": 15.11637734
    },
    {
      "epoch": "2026-04-03T00:00:02.999808Z",
      "apogee_km": 533.5533316196443,
      "perigee_km": 531.3737282125094,
      "latitude_deg": 23.671635953428165,
      "longitude_deg": 175.20726543381005,
      "height_km": 532.4352290232002,
      "semi_major_axis_km": 6910.600529916077,
      "eccentricity": 0.0001577,
      "inclination_deg": 53.073,
      "raan_deg": 347.4337,
      "arg_perigee_deg": 69.5377,
      "mean_anomaly_deg": 320.5402,
      "mean_motion_rev_day": 15.11224822
    },
    {
      "epoch": "2026-04-03T20:00:01.999008Z",
      "apogee_km": 528.8074046231477,
      "perigee_km": 526.7950142289201,
      "latitude_deg": -48.29025261927654,
      "longitude_deg": 88.46198330856868,
      "height_km": 545.2639524806638,
      "semi_major_axis_km": 6905.938209426034,
      "eccentricity": 0.0001457,
      "inclination_deg": 53.0803,
      "raan_deg": 343.6609,
      "arg_perigee_deg": 95.5332,
      "mean_anomaly_deg": 153.0799,
      "mean_motion_rev_day": 15.12755462
    },
    {
      "epoch": "2026-04-04T06:00:02.000160Z",
      "apogee_km": 526.5949880598346,
      "perigee_km": 524.574682901899,
      "latitude_deg": -0.46667441835411566,
      "longitude_deg": 58.84279809997997,
      "height_km": 526.6078742842157,
      "semi_major_axis_km": 6903.7218354808665,
      "eccentricity": 0.00014632,
      "inclination_deg": 53.0831,
      "raan_deg": 341.7725,
      "arg_perigee_deg": 93.8616,
      "mean_anomaly_deg": 265.6742,
      "mean_motion_rev_day": 15.13484004
    },
    {
      "epoch": "2026-04-05T14:00:03.000384Z",
      "apogee_km": 519.6024281332957,
      "perigee_km": 517.7413932168383,
      "latitude_deg": 50.3419969970623,
      "longitude_deg": -3.901403886915242,
      "height_km": 523.6407965149909,
      "semi_major_axis_km": 6896.808910675067,
      "eccentricity": 0.00013492,
      "inclination_deg": 53.0934,
      "raan_deg": 335.714,
      "arg_perigee_deg": 77.0522,
      "mean_anomaly_deg": 356.8366,
      "mean_motion_rev_day": 15.15760105
    }
  ]
}